ORBCOMM FM05 [-]        
1 25117U 97084F   23307.76624661  .00002734  00000+0  87485-3 0  9997
2 25117  45.0165 317.3293 0001408 195.5821 164.4986 14.41653355355144
ORBCOMM FM07 [-]        
1 25119U 97084H   23307.77565612  .00002819  00000+0  90253-3 0  9991
2 25119  45.0153 317.8962 0001252 157.4299 202.6606 14.41546523356057
ORBCOMM FM04 [+]        
1 25159U 98007C   23307.90350291  .00001591  00000+0  63774-3 0  9995
2 25159 107.9765   6.6124 0044524 201.1072 158.8229 14.31690397339519
ORBCOMM FM17 [-]        
1 25413U 98046A   23307.88131535  .00001231  00000+0  50188-3 0  9992
2 25413  44.9941 162.0875 0002110 117.2391 242.8670 14.32478052318316
ORBCOMM FM18 [-]        
1 25414U 98046B   23307.87580793  .00002491  00000+0  91535-3 0  9996
2 25414  44.9931  93.0430 0005230 187.7358 172.3409 14.35015129319219
ORBCOMM FM19 [+]        
1 25415U 98046C   23307.91850267  .00002420  00000+0  89323-3 0  9992
2 25415  44.9940  94.0144 0004039 180.4442 321.3977 14.34877318319180
